#aV2023  8  5  0  0  0.00000000     288 DD+AD WGS84 FIT  NGA
## 2273 518400.00000000   300.00000000 60161 0.0000000000000
+   32     1  2  3  4  5  6  7  8  9 10 11 12 13 14 15 16 17
+         18 19 20 21 22 23 24 25 26 27 28 29 30 31 32  0  0
+          0  0  0  0  0  0  0  0  0  0  0  0  0  0  0  0  0
+          0  0  0  0  0  0  0  0  0  0  0  0  0  0  0  0  0
+          0  0  0  0  0  0  0  0  0  0  0  0  0  0  0  0  0
++         2  2  2  2  2  2  2  2  2  2  2  2  2  2  2  2  2
++         2  2  2  2  2  2  2  2  2  2  2  2  2  2  2  0  0
++         0  0  0  0  0  0  0  0  0  0  0  0  0  0  0  0  0
++         0  0  0  0  0  0  0  0  0  0  0  0  0  0  0  0  0
++         0  0  0  0  0  0  0  0  0  0  0  0  0  0  0  0  0
%c cc cc ccc ccc cccc cccc cccc cccc ccccc ccccc ccccc ccccc
%c cc cc ccc ccc cccc cccc cccc cccc ccccc ccccc ccccc ccccc
%f  0.0000000  0.000000000  0.00000000000  0.000000000000000
%f  0.0000000  0.000000000  0.00000000000  0.000000000000000
%i    0    0    0    0      0      0      0      0         0
%i    0    0    0    0      0      0      0      0         0
/*      NGA, ST. LOUIS,MO.                                  
/*   EPHEMERIS COMPUTED FROM 2 DAYS OF DATA                 
/*   EPOCHA v8 SMOOTHER                                     
/*   G2139 IERS2010 SATIGS SATAPC                           
*  2023  8  5 23  0  0.00000000
P  1 -15042.120922   -928.699267  21570.250950    169.741492                    
V  1  -7763.562896 -26988.292836  -6147.324098     -0.015432                    
P  2 -17332.411447  -6925.821232  19459.617382   -568.593258                    
V  2  -7984.617992 -22206.021694 -15260.651424      0.040644                    
P  3 -20784.579005   9508.683101  13285.494007   -200.704125                    
V  3  10166.770418 -13901.506968  25688.747704      0.175299                    
P  4 -24726.999672    706.437721  -9819.559532    116.943881                    
V  4 -11468.255780  -5368.346189  28345.897383      0.112709                    
P  5  14839.099333   5409.789878 -21551.553905   -137.683532                    
V  5 -16849.790601  20972.822524  -6287.227914     -0.014578                    
P  6   4860.939740  25698.753616   4392.043397    570.031830                    
V  6  -3467.125217  -4689.449232  31794.372873     -0.047123                    
P  7  -8739.899493  16215.332749 -18486.751908    104.122672                    
V  7  -9273.144080 -22929.566539 -15817.073488     -0.109244                    
P  8 -26043.989711  -6055.259847  -1540.151809   -135.760305                    
V  8   2291.953492  -2173.601251 -31352.123061     -0.018088                    
P  9 -18681.326801   8511.539436 -16953.599618    -94.057339                    
V  9 -20628.190607  -5876.320665  19826.725380      0.096436                    
P 10   7782.447170 -21659.788792  13147.673145    -48.091477                    
V 10  12550.653430 -10879.126989 -26007.215010     -0.015336                    
P 11  12586.508509  21283.797852  -9747.770611   -307.779999                    
V 11    874.348964  12563.330599  28485.748802     -0.169899                    
P 12  20738.367680  -4874.485618  15537.061861   -409.437452                    
V 12 -13273.763983  15430.685945  22240.885557     -0.045301                    
P 13  21587.864901  13690.343270  -7792.140602    556.467209                    
V 13  -9723.445015  -1316.958789 -29765.482783      0.048034                    
P 14 -11029.182554  21842.851816  10142.846793    145.059893                    
V 14 -11134.857322   7211.286115 -27854.342481      0.117839                    
P 15  26515.736350   2976.048415  -1378.903793     64.879662                    
V 15  -1439.187510   3351.550699 -30910.532694      0.035990                    
P 16 -11165.948183 -10486.033181 -22014.462560   -471.962387                    
V 16  20102.366348 -18325.617564  -1044.924124      0.048064                    
P 17  -2345.985028  15030.335468  22198.567178    722.284010                    
V 17 -26132.648131  -7251.299827   2296.355324      0.005378                    
P 18   7002.686526 -18496.489113 -17644.080503   -372.144635                    
V 18   7862.334766  21069.026036 -19132.834874     -0.136300                    
P 19   6751.738594  16389.820688  19672.804048    353.725647                    
V 19 -24302.041620  -7121.387588  13802.351971      0.051451                    
P 20   7703.984058  15112.704707 -20444.419246    418.785672                    
V 20 -14837.432653  21414.134926  10034.762876     -0.020211                    
P 21 -17767.662696 -10271.783279  17853.193481    151.183094                    
V 21  -7278.994552 -20034.891083 -18477.360386     -0.005753                    
P 22 -10038.757803 -16645.213982  18623.285395    523.000703                    
V 22  22024.388762   5474.512861  17034.335535      0.052161                    
P 23  16584.054105 -20589.994934   1281.882647     51.579604                    
V 23   2969.835199    408.300381 -32115.894364      0.045348                    
P 24  17464.637174   5047.358972  19127.892732   -280.805042                    
V 24   8367.323706  23650.501334 -13201.495987     -0.117337                    
P 25  19732.794054 -16701.432379   5134.047780    460.475805                    
V 25  -2184.058132   7385.337165  30821.782582      0.022327                    
P 26  -2628.831611 -18818.868812 -18539.689503    234.032070                    
V 26  16161.779155 -17198.812410  15609.285581     -0.013798                    
P 27 -19990.778022 -13017.251221 -12352.448920    -16.769866                    
V 27  15169.014757   1408.545277 -26177.458925     -0.068986                    
P 28  -4461.228961 -25434.395998   6203.022513     78.530565                    
V 28   5183.833086   6542.258013  30450.395566     -0.028187                    
P 29  19793.472932  -5918.594360 -16801.358796   -607.183818                    
V 29  19850.244563   7474.240858  20713.766359     -0.007647                    
P 30  -2096.160008  23358.753994 -12092.146202   -498.763128                    
V 30  -7712.335700 -14045.935606 -25801.199015      0.029841                    
P 31 -10525.118364 -23681.678779  -4846.704603   -221.342844                    
V 31   1463.799484  -6693.826381  31075.721865     -0.006422                    
P 32  -2486.980968 -15817.992443  21403.406148   -535.206104                    
V 32  26247.793371   5020.156222   6622.015355     -0.070908                    
EOF
